{{Infobox Planet  
| name=792 Metcalfia (1907 ZC)
| image=
| caption=
| discovery=yes 
| physical_characteristics=yes 
| bgcolour=#FFFFC0
| discoverer=[[乔尔·梅特卡夫|乔尔·梅特卡夫]]
| discovery_site=[[汤顿_(马萨诸塞州)|汤顿]]
| discovered=1907年3月20日
| mp_name=792
| alt_names=
| mp_category=[[小行星带|主带小行星]]
| epoch=2456400.5 (2013-Apr-18.0) TDB
| semimajor= 2.622393555783277AU
| perihelion=2.281764690911424AU
| aphelion=2.96302242065513AU
| eccentricity=.1298923512531708
| period=1551.119402607931天<br>4.25年
| inclination=8.61688550020383°
| asc_node=265.1415083471136°	
| arg_peri=227.3752008479534°
| mean_anomaly=36.98383142488201°
 | dimensions=
 | mean_radius=30.365千米
 | rotation=9.17小时
 | spectral_type=
 | abs_magnitude=10.33
 | albedo=0.0354
}}
'''小行星792'''（792 Metcalfia (1907 ZC)），是[[乔尔·梅特卡夫|乔尔·梅特卡夫]]于1907年3月20日在美国[[马萨诸塞州|马萨诸塞州]][[汤顿_(马萨诸塞州)|汤顿]]发现的[[小行星带|主带小行星]]<ref>{{JPL Small Body|name=792}}</ref>。它以美國天文學家[[乔尔·梅特卡夫|乔尔·梅特卡夫]]命名。

== 参考资料==
{{Reflist}}

{{Minor Planet Number|[[小行星791|小行星791]]|[[小行星793|小行星793]]}}
{{beltasteroid-stub}}

[[Category:小行星带天体|Category:小行星带天体]]
[[Category:1907年发现的小行星|Category:1907年发现的小行星]]